{
  "type": "FeatureCollection",
  "features": [
    {
      "type": "Feature",
      "properties": {
        "id": "western-railway",
        "name": "Western Railway",
        "line": "Western",
        "color": "#3B82F6"
      },
      "geometry": {
        "type": "LineString",
        "coordinates": [
          [72.8356, 18.9398],
          [72.8361, 18.9596],
          [72.8365, 18.9706],
          [72.8361, 19.0000],
          [72.8361, 19.0186],
          [72.8361, 19.0435],
          [72.8361, 19.0596],
          [72.8384, 19.0706],
          [72.8386, 19.0815],
          [72.8342, 19.0990],
          [72.8347, 19.1197],
          [72.8484, 19.1342],
          [72.8484, 19.1566],
          [72.8477, 19.1878],
          [72.8490, 19.2046],
          [72.8561, 19.2289],
          [72.8597, 19.2511]
        ]
      }
    },
    {
      "type": "Feature",
      "properties": {
        "id": "central-railway-main",
        "name": "Central Railway Main Line",
        "line": "Central",
        "color": "#EF4444"
      },
      "geometry": {
        "type": "LineString",
        "coordinates": [
          [72.8356, 18.9398],
          [72.8391, 18.9661],
          [72.8430, 19.0178],
          [72.8595, 19.0245],
          [72.8656, 19.0407],
          [72.8788, 19.0728],
          [72.9081, 19.0863],
          [72.9235, 19.1052],
          [72.9311, 19.1459],
          [72.9529, 19.1741],
          [72.9641, 19.2103]
        ]
      }
    },
    {
      "type": "Feature",
      "properties": {
        "id": "harbour-line",
        "name": "Harbour Line",
        "line": "Harbour",
        "color": "#22C55E"
      },
      "geometry": {
        "type": "LineString",
        "coordinates": [
          [72.8356, 18.9398],
          [72.8477, 18.9671],
          [72.8595, 18.9821],
          [72.8731, 19.0000],
          [72.8788, 19.0728],
          [72.8879, 19.0901],
          [72.9129, 19.0771]
        ]
      }
    }
  ]
}
